ASTRA 2D                
1 26638U 00081A   19187.08357391  .00000019  00000-0  00000+0 0  9995
2 26638   5.1020  66.5202 0001821  24.0933 228.3829  1.00272934 67936
AMC-8 (GE-8)            
1 26639U 00081B   19187.51668050  .00000094  00000-0  00000+0 0  9994
2 26639   0.0528  87.3538 0000770  81.5796 162.2636  1.00270769 67828
SKYNET 4F               
1 26695U 01005B   19186.39051149 -.00000259  00000-0  00000+0 0  9997
2 26695   9.6625  31.7501 0002630  55.6800 302.2632  1.00273846 67428
USA 157 (MILSTAR-2 2)   
1 26715U 01009A   19186.58550654 -.00000374  00000-0  00000+0 0  9998
2 26715   9.0112  32.2203 0001578  47.1775 165.6426  1.00276278  6188
EUTELSAT 33C            
1 26719U 01011A   19186.62549532  .00000070  00000-0  00000-0 0  9996
2 26719   1.1677  90.7063 0005218  10.0461 274.8759  1.00271993 67087
INTELSAT 10 (IS-10)     
1 26766U 01019A   19187.41172424  .00000114  00000-0  00000+0 0  9994
2 26766   3.1184  81.2396 0003365   3.6372  34.9445  1.00272671 66482
INTELSAT 901 (IS-901)   
1 26824U 01024A   19186.82208917 -.00000223  00000-0  00000+0 0  9998
2 26824   1.0997  93.1138 0002924  14.6678  82.1588  1.00271250 66141
ASTRA 2C                
1 26853U 01025A   19187.11979407  .00000127  00000-0  00000+0 0  9995
2 26853   2.0335  88.0394 0002625  11.2050 251.3933  1.00274146 66132
USA 159 (DSP 21)        
1 26880U 01033A   19187.46424025 -.00000307  00000-0  00000+0 0  9994
2 26880  10.4408  32.7157 0001270 147.9617 221.5786  1.00272270  6179
INTELSAT 902 (IS-902)   
1 26900U 01039A   19187.49285296  .00000023  00000-0  00000+0 0  9995
2 26900   0.0274  69.4012 0003190  50.2527  43.9177  1.00272913 65320
EUTELSAT 12 WEST B      
1 26927U 01042A   19186.82549137 -.00000109  00000-0  00000+0 0  9997
2 26927   0.2722  93.3472 0006652   1.2429 113.5811  1.00270526 65077
DIRECTV 4S              
1 26985U 01052A   19187.54648830 -.00000123  00000-0  00000+0 0  9998
2 26985   0.0195  57.6813 0002575  20.3327 301.7539  1.00271200 64554
USA 164 (MILSTAR-2 3)   
1 27168U 02001A   19186.82709934  .00000093  00000-0  00000-0 0  9996
2 27168   8.4213  33.3878 0001914  68.2923 138.5518  1.00274138  7500
ECHOSTAR 7              
1 27378U 02006A   19186.87608821 -.00000008  00000-0  00000-0 0  9999
2 27378   0.0170 323.3725 0001795 102.0526  54.7201  1.00270851 25167
INTELSAT 904 (IS-904)   
1 27380U 02007A   19186.82679990 -.00000080  00000-0  00000+0 0  9992
2 27380   0.6495  97.0894 0002439   5.1004 113.0927  1.00148676 63635
TDRS 9                  
1 27389U 02011A   19187.47011008 -.00000298  00000-0  00000+0 0  9999
2 27389   6.7760  70.7042 0019765 267.3946  52.8943  1.00279221 64995
JCSAT 2A                
1 27399U 02015A   19187.03660576 -.00000317  00000-0  00000+0 0  9998
2 27399   2.1119  87.9104 0001834 166.3192 178.6138  1.00273503 63160
ASTRA 3A                
1 27400U 02015B   19187.10574909 -.00000293  00000-0  00000+0 0  9996
2 27400   5.2416  65.2553 0002425  29.9008 179.7351  1.00272151 63269
INTELSAT 903 (IS-903)   
1 27403U 02016A   19187.11854948 -.00000234  00000-0  00000+0 0  9990
2 27403   1.4845  91.5427 0002871  20.8356 182.6011  1.00270731 63199
NSS-7                   
1 27414U 02019A   19186.82400836 -.00000167  00000-0  00000-0 0  9991
2 27414   3.4738  78.9384 0002306  27.2854  93.9349  1.00271470 63113
DIRECTV 5 (TEMPO 1)     
1 27426U 02023A   19187.53911698 -.00000066  00000-0  00000+0 0  9998
2 27426   0.0196  43.7658 0003657  69.4971 254.9182  1.00269144 62869
INTELSAT 905 (IS-905)   
1 27438U 02027A   19187.46912546 -.00000194  00000-0  00000+0 0  9992
2 27438   0.4703  98.4561 0002182  15.4214 314.6701  1.00270736 62526
EXPRESS-A4              
1 27441U 02029A   19187.50535223 -.00000258  00000-0  00000+0 0  9997
2 27441   7.2852  52.1037 0016130  76.6210 122.9436  1.00274683 62528
GALAXY 3C (G-3C)        
1 27445U 02030A   19187.45604965 -.00000160  00000-0  00000+0 0  9999
2 27445   0.0203 320.6689 0002125   6.4799  26.1231  1.00269192 62506
EUTELSAT 5 WEST A       
1 27460U 02035A   19187.32941934 -.00000052  00000-0  00000+0 0  9997
2 27460   0.0154  20.1146 0006218  77.9942 299.4794  1.00271108 62305
N-STAR C                
1 27461U 02035B   19186.56786997 -.00000321  00000-0  00000+0 0  9998
2 27461   6.0008  60.8019 0005296  19.3195 183.5962  1.00274058 62201
METEOSAT-8 (MSG-1)      
1 27509U 02040B   19187.25466003  .00000127  00000-0  00000+0 0  9990
2 27509   6.1221  55.5210 0001304  13.4727 348.0555  1.00277809 61806
INTELSAT 906 (IS-906)   
1 27513U 02041A   19187.49285296  .00000005  00000-0  00000+0 0  9990
2 27513   0.0063 127.5189 0002192 340.6223  57.6066  1.00272599 61525
HISPASAT 30W-4          
1 27528U 02044A   19187.14702149 -.00000227  00000-0  00000+0 0  9999
2 27528   0.2739  93.5086 0004291  25.7594 187.3033  1.00269437 61493
TDRS 10                 
1 27566U 02055A   19186.78978153  .00000081  00000-0  00000+0 0  9999
2 27566   6.3090  55.1830 0006930 312.7271  28.8036  1.00265935 60777
NSS-6                   
1 27603U 02057A   19186.49285399 -.00000204  00000-0  00000+0 0  9992
2 27603   0.0545  96.5664 0003451   6.9352 270.3069  1.00272055 60632
NIMIQ 2                 
1 27632U 02062A   19187.06154997 -.00000254  00000-0  00000+0 0  9998
2 27632   3.5845  78.2562 0008111   2.3012 316.7970  1.00272538 60418
INTELSAT 907 (IS-907)   
1 27683U 03007A   19187.14702149 -.00000212  00000-0  00000+0 0  9995
2 27683   0.0133  65.2440 0002207  43.6463 200.3803  1.00269028 59933
USA 167                 
1 27691U 03008A   19187.41155450  .00000045  00000-0  00000+0 0  9995
2 27691   6.0015  60.7125 0003373 345.8798 255.6431  1.00269823  6171
USA 169 (MILSTAR-2 4)   
1 27711U 03012A   19187.03650465 -.00000017  00000-0  00000+0 0  9997
2 27711   8.5501  47.1628 0003552  49.5331  80.1642  1.00269498  6193
GALAXY 12 (G-12)        
1 27715U 03013B   19187.16105667  .00000049  00000-0  00000+0 0  9999
2 27715   0.6872  95.5812 0002340  20.4673  96.7712  1.00271360 59554
ASIASAT 4               
1 27718U 03014A   19187.13224260  .00000144  00000-0  00000+0 0  9997
2 27718   0.0141 304.8507 0001510 164.6569 260.1191  1.00269073 59477
HELLAS-SAT 2            
1 27811U 03020A   19187.16794830 -.00000160  00000-0  00000+0 0  9995
2 27811   1.1056  96.2716 0002677 359.9005 152.9388  1.00271099 58882
THURAYA-2               
1 27825U 03026A   19187.12389417  .00000119  00000-0  00000+0 0  9996
2 27825   5.5815  31.8531 0004809  69.5036 271.0415  1.00272747 58891
OPTUS C1                
1 27831U 03028B   19186.85898997 -.00000159  00000-0  00000-0 0  9998
2 27831   0.6093  99.4168 0005435   0.3792 288.6334  1.00273220 27602
ECHOSTAR 12 (RAINBOW 1) 
1 27852U 03033A   19187.09789786 -.00000208  00000-0  00000+0 0  9993
2 27852   0.0291 300.4837 0001605 127.5475 164.5999  1.00270735 58490
GALAXY 23 (G-23)        
1 27854U 03034A   19186.87556479  .00000005  00000-0  00000-0 0  9997
2 27854   0.0180  76.6653 0003075  30.1549  10.9458  1.00271861 58294
USA 170                 
1 27875U 03040A   19187.46563603 -.00000283  00000-0  00000+0 0  9998
2 27875   5.1995  66.2417 0003977  46.4859 296.7354  1.00269540  6175
GALAXY 13 (HORIZONS 1)  
1 27954U 03044A   19187.53291897  .00000039  00000-0  00000+0 0  9999
2 27954   0.0097  42.9782 0001431 150.4030 155.6567  1.00268216 57710
YAMAL 202               
1 28089U 03053A   19187.48378110  .00000110  00000-0  00000+0 0  9997
2 28089   0.0426  89.1426 0002620 189.8970 228.2485  1.00270604 57231
UFO 11 (USA 174)        
1 28117U 03057A   19187.12447779 -.00000109  00000-0  00000+0 0  9991
2 28117   5.7111  36.8890 0003316 346.4921  20.5416  1.00270556 56973
USA 176 (DSP 22)        
1 28158U 04004A   19186.67307743 -.00000227  00000-0  00000+0 0  9995
2 28158   8.7225  41.2111 0000871   7.4823 204.2982  1.00274760  6156
ABS-4 (MOBISAT-1)       
1 28184U 04007A   19187.41442854  .00000031  00000-0  00000+0 0  9995
2 28184   0.0259  62.0821 0001748  46.9606  25.2441  1.00271604 56135
EUTELSAT 7A             
1 28187U 04008A   19187.33168748  .00000038  00000-0  00000+0 0  9994
2 28187   0.0639 355.6388 0005023 122.9376 291.8320  1.00269711 56131
DIRECTV 7S              
1 28238U 04016A   19186.87600097 -.00000007  00000-0  00000-0 0  9994
2 28238   0.0216 311.4200 0002803 151.2580  17.1776  1.00271760 55610
AMC-11 (GE-11)          
1 28252U 04017A   19187.16079495  .00000060  00000-0  00000+0 0  9993
2 28252   0.0144  33.4771 0002581  70.4632 106.7901  1.00271549 55253
INTELSAT 10-02          
1 28358U 04022A   19187.11490885 -.00000020  00000-0  00000+0 0  9998
2 28358   0.0158  49.8843 0002712  64.6640 209.6319  1.00269542 55173
APSTAR 5 (TELSTAR 18)   
1 28364U 04024A   19187.49041104 -.00000017  00000-0  00000+0 0  9990
2 28364   0.6130  97.1534 0006253 322.0871 123.4450  0.99520437 55102
ANIK F2                 
1 28378U 04027A   19187.53830625 -.00000059  00000-0  00000+0 0  9993
2 28378   0.0205 310.5243 0000252   9.6767  46.7209  1.00269350 54912
AMC-15                  
1 28446U 04041A   19187.16594187 -.00000098  00000-0  00000+0 0  9997
2 28446   0.0288 322.4808 0002531 130.1445 145.9135  1.00271244 53917
AMC-16                  
1 28472U 04048A   19186.88280537 -.00000214  00000-0  00000-0 0  9993
2 28472   0.0200 327.3749 0002463 130.8032  58.2066  1.00270619 53285
NSS-10 (AMC-12)         
1 28526U 05003A   19186.79285667 -.00000259  00000-0  00000+0 0  9992
2 28526   0.2186  96.8616 0002480 353.1821  81.4147  1.00270126 52860
XTAR-EUR                
1 28542U 05005A   19187.13111023  .00000142  00000-0  00000+0 0  9995
2 28542   0.0519  94.2900 0002285   3.1768 262.5506  1.00273310 52734
XM-3 (RHYTHM)           
1 28626U 05008A   19187.47341030 -.00000215  00000-0  00000+0 0  9993
2 28626   0.0123 146.0505 0000245 324.5392 258.8792  1.00270224 52626
